NORAD_CAT_ID,OBJECT_NAME,OBJECT_TYPE,EPOCH,MEAN_MOTION,ECCENTRICITY,INCLINATION,RA_OF_ASC_NODE,ARG_OF_PERICENTER,MEAN_ANOMALY,BSTAR,MEAN_MOTION_DOT,MEAN_MOTION_DDOT,TLE_LINE0,TLE_LINE1,TLE_LINE2,SEMIMAJOR_AXIS,PERIOD,APOGEE,PERIGEE,DECAYED
54776.0,STARLINK-5470,PAYLOAD,2023-11-21 21:14:12,15.08850342,0.0001531,53.2164,209.2655,88.1083,272.0084,-8.5412e-06,-4.24e-06,0.0,0 STARLINK-5470,1 54776U 22175U   23325.88487027 -.00000424  00000-0 -85412-5 0  9992,2 54776  53.2164 209.2655 0001531  88.1083 272.0084 15.08850342 53297,6917.849,95.437,540.773,538.655,0.0
54776.0,STARLINK-5470,PAYLOAD,2023-11-22 02:00:21,15.08851509,0.0001519,53.2157,208.3721,92.0581,268.0586,5.4685e-05,5.83e-06,0.0,0 STARLINK-5470,1 54776U 22175U   23326.08358599  .00000583  00000-0  54685-4 0  9997,2 54776  53.2157 208.3721 0001519  92.0581 268.0586 15.08851509 51168,6917.845,95.437,540.761,538.659,0.0
54776.0,STARLINK-5470,PAYLOAD,2023-11-22 19:29:36,15.0884343,0.0002029,53.2161,205.1016,121.9816,238.1374,5.1714e-05,5.35e-06,0.0,0 STARLINK-5470,1 54776U 22175U   23326.81222843  .00000535  00000-0  51714-4 0  9997,2 54776  53.2161 205.1016 0002029 121.9816 238.1374 15.08843430 51274,6917.87,95.437,541.139,538.331,0.0
54776.0,STARLINK-5470,PAYLOAD,2023-11-22 21:04:59,15.08842224,0.0001499,53.2163,204.8037,91.0903,269.0261,4.5535e-05,4.37e-06,0.0,0 STARLINK-5470,1 54776U 22175U   23326.87847114  .00000437  00000-0  45535-4 0  9992,2 54776  53.2163 204.8037 0001499  91.0903 269.0261 15.08842224 53448,6917.874,95.437,540.776,538.702,0.0
54776.0,STARLINK-5470,PAYLOAD,2023-11-23 01:51:09,15.08846726,0.0001521,53.2159,203.9091,102.6336,257.4826,0.00010201,1.336e-05,0.0,0 STARLINK-5470,1 54776U 22175U   23327.07718806  .00001336  00000-0  10201-3 0  9990,2 54776  53.2159 203.9091 0001521 102.6336 257.4826 15.08846726 53470,6917.86,95.437,540.777,538.673,0.0
54776.0,STARLINK-5470,PAYLOAD,2023-11-23 19:20:24,15.08826472,0.0001456,53.215,200.6352,125.0451,235.0677,0.00016839,2.392e-05,0.0,0 STARLINK-5470,1 54776U 22175U   23327.80584195  .00002392  00000-0  16839-3 0  9999,2 54776  53.2150 200.6352 0001456 125.0451 235.0677 15.08826472 51424,6917.922,95.438,540.794,538.779,0.0
54776.0,STARLINK-5470,PAYLOAD,2023-11-23 22:31:10,15.08829396,0.0001511,53.216,200.0455,106.2943,253.8215,8.5381e-07,-2.74e-06,0.0,0 STARLINK-5470,1 54776U 22175U   23327.93831995 -.00000274  00000-0  85381-6 0  9995,2 54776  53.2160 200.0455 0001511 106.2943 253.8215 15.08829396 53608,6917.913,95.438,540.823,538.733,0.0
54776.0,STARLINK-5470,PAYLOAD,2023-11-24 01:41:57,15.08830076,0.0001462,53.2159,199.4506,105.1236,254.9918,2.671e-05,1.37e-06,0.0,0 STARLINK-5470,1 54776U 22175U   23328.07080056  .00000137  00000-0  26710-4 0  9991,2 54776  53.2159 199.4506 0001462 105.1236 254.9918 15.08830076 53623,6917.911,95.438,540.787,538.764,0.0
54776.0,STARLINK-5470,PAYLOAD,2023-11-24 19:11:11,15.08849048,0.000136,53.2156,196.1804,94.6766,265.4381,0.00035621,5.387e-05,0.0,0 STARLINK-5470,1 54776U 22175U   23328.79943766  .00005387  00000-0  35621-3 0  9998,2 54776  53.2156 196.1804 0001360  94.6766 265.4381 15.08849048 51574,6917.853,95.437,540.659,538.777,0.0
54776.0,STARLINK-5470,PAYLOAD,2023-11-24 22:21:57,15.08856203,0.0001386,53.2156,195.5865,89.287,270.8281,0.00079293,0.0001236,0.0,0 STARLINK-5470,1 54776U 22175U   23328.93191813  .00012360  00000-0  79293-3 0  9994,2 54776  53.2156 195.5865 0001386  89.2870 270.8281 15.08856203 53750,6917.831,95.437,540.655,538.737,0.0
54776.0,STARLINK-5470,PAYLOAD,2023-11-25 01:32:43,15.0886331,0.0001378,53.2156,194.9914,89.777,270.338,0.00091582,0.00014327,0.0,0 STARLINK-5470,1 54776U 22175U   23329.06439569  .00014327  00000-0  91582-3 0  9992,2 54776  53.2156 194.9914 0001378  89.7770 270.3380 15.08863310 53777,6917.809,95.436,540.627,538.721,0.0
54776.0,STARLINK-5470,PAYLOAD,2023-11-25 20:37:21,15.08848272,0.0001725,53.2158,191.4202,100.9885,259.1301,0.00029751,4.451e-05,0.0,0 STARLINK-5470,1 54776U 22175U   23329.85927303  .00004451  00000-0  29751-3 0  9993,2 54776  53.2158 191.4202 0001725 100.9885 259.1301 15.08848272 53891,6917.855,95.437,540.913,538.527,0.0
54776.0,STARLINK-5470,PAYLOAD,2023-11-26 14:06:35,15.0884451,0.0001489,53.2155,188.1545,87.4342,272.682,3.6009e-05,2.85e-06,0.0,0 STARLINK-5470,1 54776U 22175U   23330.58791371  .00000285  00000-0  36009-4 0  9995,2 54776  53.2155 188.1545 0001489  87.4342 272.6820 15.08844510 54006,6917.867,95.437,540.762,538.702,0.0
54776.0,STARLINK-5470,PAYLOAD,2023-11-26 18:52:45,15.0884228,0.0001818,53.2152,187.2577,114.1452,245.9731,-4.7804e-05,-1.049e-05,0.0,0 STARLINK-5470,1 54776U 22175U   23330.78663313 -.00001049  00000-0 -47804-4 0  9997,2 54776  53.2152 187.2577 0001818 114.1452 245.9731 15.08842280 51872,6917.873,95.437,540.996,538.481,0.0
54776.0,STARLINK-5470,PAYLOAD,2023-11-26 22:03:31,15.08841277,0.0001484,53.2155,186.6656,84.3299,275.7862,-6.485e-05,-1.32e-05,0.0,0 STARLINK-5470,1 54776U 22175U   23330.91911605 -.00001320  00000-0 -64850-4 0  9994,2 54776  53.2155 186.6656 0001484  84.3299 275.7862 15.08841277 54056,6917.876,95.437,540.768,538.715,0.0
54776.0,STARLINK-5470,PAYLOAD,2023-11-27 13:57:23,15.08830161,0.0001663,53.2163,183.6937,74.2983,285.8192,-9.289e-05,-1.766e-05,0.0,0 STARLINK-5470,1 54776U 22175U   23331.58152485 -.00001766  00000-0 -92890-4 0  9990,2 54776  53.2163 183.6937 0001663  74.2983 285.8192 15.08830161 54150,6917.91,95.438,540.926,538.625,0.0
54776.0,STARLINK-5470,PAYLOAD,2023-11-27 18:43:33,15.08831758,0.0001542,53.2164,182.8015,75.4135,284.7028,-0.00016854,-2.969e-05,0.0,0 STARLINK-5470,1 54776U 22175U   23331.78024577 -.00002969  00000-0 -16854-3 0  9993,2 54776  53.2164 182.8015 0001542  75.4135 284.7028 15.08831758 52020,6917.906,95.438,540.837,538.704,0.0
54776.0,STARLINK-5470,PAYLOAD,2023-11-27 21:54:20,15.08805238,0.0001796,53.2176,182.2066,81.6213,278.4983,0.00038412,5.825e-05,0.0,0 STARLINK-5470,1 54776U 22175U   23331.91273602  .00005825  00000-0  38412-3 0  9999,2 54776  53.2176 182.2066 0001796  81.6213 278.4983 15.08805238 54206,6917.987,95.44,541.094,538.609,0.0
54776.0,STARLINK-5470,PAYLOAD,2023-11-28 20:09:42,15.08843617,0.0001485,53.2168,178.0419,83.0522,277.0639,0.00013988,1.939e-05,0.0,0 STARLINK-5470,1 54776U 22175U   23332.84008097  .00001939  00000-0  13988-3 0  9999,2 54776  53.2168 178.0419 0001485  83.0522 277.0639 15.08843617 52187,6917.869,95.437,540.762,538.707,0.0
54776.0,STARLINK-5470,PAYLOAD,2023-11-28 23:20:28,15.08848449,0.0001465,53.217,177.4469,90.5001,269.6159,0.00018816,2.709e-05,0.0,0 STARLINK-5470,1 54776U 22175U   23332.97255655  .00002709  00000-0  18816-3 0  9998,2 54776  53.2170 177.4469 0001465  90.5001 269.6159 15.08848449 54365,6917.855,95.437,540.733,538.706,0.0
54776.0,STARLINK-5470,PAYLOAD,2023-11-29 18:25:08,15.0883073,0.0001415,53.2168,173.8779,94.1205,265.9949,6.4833e-05,7.44e-06,0.0,0 STARLINK-5470,1 54776U 22175U   23333.76745733  .00000744  00000-0  64833-4 0  9995,2 54776  53.2168 173.8779 0001415  94.1205 265.9949 15.08830730 52321,6917.909,95.438,540.753,538.795,0.0
54776.0,STARLINK-5470,PAYLOAD,2023-11-30 18:15:54,15.08844653,0.0001768,53.2177,169.401,117.9603,242.1569,6.0157e-05,6.7e-06,0.0,0 STARLINK-5470,1 54776U 22175U   23334.76104971  .00000670  00000-0  60157-4 0  9992,2 54776  53.2177 169.4010 0001768 117.9603 242.1569 15.08844653 52477,6917.866,95.437,540.954,538.508,0.0
54776.0,STARLINK-5470,PAYLOAD,2023-12-01 18:06:41,15.08853674,0.0001468,53.2151,164.9542,82.3726,277.7433,0.00031153,4.675e-05,0.0,0 STARLINK-5470,1 54776U 22175U   23335.75464564  .00004675  00000-0  31153-3 0  9991,2 54776  53.2151 164.9542 0001468  82.3726 277.7433 15.08853674 54780,6917.839,95.437,540.719,538.688,0.0
54776.0,STARLINK-5470,PAYLOAD,2023-12-02 13:11:18,15.0885446,0.0001485,53.2145,161.3865,87.6332,272.483,9.8e-05,1.273e-05,0.0,0 STARLINK-5470,1 54776U 22175U   23336.54951864  .00001273  00000-0  98000-4 0  9999,2 54776  53.2145 161.3865 0001485  87.6332 272.4830 15.08854460 54903,6917.836,95.437,540.728,538.674,0.0
54776.0,STARLINK-5470,PAYLOAD,2023-12-02 17:57:27,15.08850446,0.0001492,53.2151,160.4936,100.0981,260.018,0.00011359,1.521e-05,0.0,0 STARLINK-5470,1 54776U 22175U   23336.74823794  .00001521  00000-0  11359-3 0  9998,2 54776  53.2151 160.4936 0001492 100.0981 260.0180 15.08850446 52771,6917.848,95.437,540.746,538.681,0.0
54776.0,STARLINK-5470,PAYLOAD,2023-12-03 13:02:05,15.08836524,0.0001714,53.2145,156.9257,108.8477,251.2701,-0.00015222,-2.71e-05,0.0,0 STARLINK-5470,1 54776U 22175U   23337.54312367 -.00002710  00000-0 -15222-3 0  9992,2 54776  53.2145 156.9257 0001714 108.8477 251.2701 15.08836524 55059,6917.891,95.438,540.942,538.57,0.0
54776.0,STARLINK-5470,PAYLOAD,2023-12-03 19:23:40,15.0881982,0.0001326,53.2164,155.7373,80.5561,279.5581,-0.00020042,-3.474e-05,0.0,0 STARLINK-5470,1 54776U 22175U   23337.80810673 -.00003474  00000-0 -20042-3 0  9998,2 54776  53.2164 155.7373 0001326  80.5561 279.5581 15.08819820 52938,6917.942,95.439,540.724,538.89,0.0
54776.0,STARLINK-5470,PAYLOAD,2023-12-03 22:34:27,15.08776374,0.0001573,53.2164,155.1431,82.6199,277.4971,0.00037577,5.687e-05,0.0,0 STARLINK-5470,1 54776U 22175U   23337.94059987  .00005687  00000-0  37577-3 0  9993,2 54776  53.2164 155.1431 0001573  82.6199 277.4971 15.08776374 52959,6918.075,95.442,541.028,538.852,0.0
54776.0,STARLINK-5470,PAYLOAD,2023-12-04 11:17:31,15.08846384,9.16e-05,53.2169,152.7639,120.6508,239.4575,-0.00035043,-5.861e-05,0.0,0 STARLINK-5470,1 54776U 22175U   23338.47050199 -.00005861  00000-0 -35043-3 0  9990,2 54776  53.2169 152.7639 0000916 120.6508 239.4575 15.08846384 53031,6917.861,95.437,540.36,539.092,0.0
54776.0,STARLINK-5470,PAYLOAD,2023-12-04 20:49:49,15.08853071,9.04e-05,53.2165,150.981,127.1684,232.939,-0.00033801,-5.665e-05,0.0,0 STARLINK-5470,1 54776U 22175U   23338.86793568 -.00005665  00000-0 -33801-3 0  9999,2 54776  53.2165 150.9810 0000904 127.1684 232.9390 15.08853071 55252,6917.84,95.437,540.331,539.08,0.0
